{"fetched_at":"2026-07-10T18:08:27.418Z","source":"https://celestrak.org/NORAD/elements/gp.php?NAME=RADARSAT&FORMAT=JSON","constellation":"radarsat-2","records":[{"OBJECT_NAME":"RADARSAT-2","OBJECT_ID":"2007-061A","EPOCH":"2026-07-10T06:26:07.509408","CLASSIFICATION_TYPE":"U","MEAN_MOTION":14.29983329,"ECCENTRICITY":0.00013218,"INCLINATION":98.5787,"RA_OF_ASC_NODE":197.8708,"ARG_OF_PERICENTER":83.9254,"MEAN_ANOMALY":276.2079,"EPHEMERIS_TYPE":0,"NORAD_CAT_ID":32382,"ELEMENT_SET_NO":999,"REV_AT_EPOCH":96925,"BSTAR":0.00014356679,"MEAN_MOTION_DOT":0.00000327,"MEAN_MOTION_DDOT":0}]}
