RADARSAT-2              
1 32382U 07061A   26191.26814247  .00000327  00000+0  14357-3 0  9999
2 32382  98.5787 197.8708 0001321  83.9254 276.2079 14.29983329969256
